CTC1_L_00348001-01
1 41134U 23003FT  26070.40835648  .00000000  00000+0  00000-0 0  9993
2 41134 100.0000   0.0000 0000000   0.0000   0.0000 13.81096544    18
CTC1_L_00348001-02
1 41135U 24985ZA  26070.40835648  .00000000  00000+0  00000-0 0  9994
2 41135 100.0000   0.0000 0000000   0.0000  90.0000 13.81096544    18
CTC1_L_00348001-03
1 41136U 23066AU  26070.40835648  .00000000  00000+0  00000-0 0  9994
2 41136 100.0000   0.0000 0000000   0.0000 180.0000 13.81096544    19
CTC1_L_00348001-04
1 41137U 25198TQ  26070.40835648  .00000000  00000+0  00000-0 0  9993
2 41137 100.0000   0.0000 0000000   0.0000 270.0000 13.81096544    10
CTC1_L_00348002-01
1 41138U 22508MZ  26070.40835648  .00000000  00000+0  00000-0 0  9996
2 41138 100.0000  12.0000 0000000   0.0000  12.0000 13.81096544    18
CTC1_L_00348002-02
1 41139U 25610YG  26070.40835648  .00000000  00000+0  00000-0 0  9994
2 41139 100.0000  12.0000 0000000   0.0000 102.0000 13.81096544    19
CTC1_L_00348002-03
1 41140U 25549WF  26070.40835648  .00000000  00000+0  00000-0 0  9997
2 41140 100.0000  12.0000 0000000   0.0000 192.0000 13.81096544    10
CTC1_L_00348002-04
1 41141U 25742NB  26070.40835648  .00000000  00000+0  00000-0 0  9993
2 41141 100.0000  12.0000 0000000   0.0000 282.0000 13.81096544    11
CTC1_L_00348003-01
1 41142U 26958LF  26070.40835648  .00000000  00000+0  00000-0 0  9994
2 41142 100.0000  24.0000 0000000   0.0000  24.0000 13.81096544    19
CTC1_L_00348003-02
1 41143U 24699XT  26070.40835648  .00000000  00000+0  00000-0 0  9995
2 41143 100.0000  24.0000 0000000   0.0000 114.0000 13.81096544    10
CTC1_L_00348003-03
1 41144U 24224PU  26070.40835648  .00000000  00000+0  00000-0 0  9990
2 41144 100.0000  24.0000 0000000   0.0000 204.0000 13.81096544    11
CTC1_L_00348003-04
1 41145U 26028HN  26070.40835648  .00000000  00000+0  00000-0 0  9995
2 41145 100.0000  24.0000 0000000   0.0000 294.0000 13.81096544    11
CTC1_L_00348004-01
1 41146U 23696OA  26070.40835648  .00000000  00000+0  00000-0 0  9994
2 41146 100.0000  36.0000 0000000   0.0000  36.0000 13.81096544    19
CTC1_L_00348004-02
1 41147U 23126VO  26070.40835648  .00000000  00000+0  00000-0 0  9993
2 41147 100.0000  36.0000 0000000   0.0000 126.0000 13.81096544    10
CTC1_L_00348004-03
1 41148U 23377SC  26070.40835648  .00000000  00000+0  00000-0 0  9992
2 41148 100.0000  36.0000 0000000   0.0000 216.0000 13.81096544    11
CTC1_L_00348004-04
1 41149U 22225ML  26070.40835648  .00000000  00000+0  00000-0 0  9994
2 41149 100.0000  36.0000 0000000   0.0000 306.0000 13.81096544    12
CTC1_L_00348005-01
1 41150U 26586BI  26070.40835648  .00000000  00000+0  00000-0 0  9990
2 41150 100.0000  48.0000 0000000   0.0000  48.0000 13.81096544    10
CTC1_L_00348005-02
1 41151U 25917BS  26070.40835648  .00000000  00000+0  00000-0 0  9998
2 41151 100.0000  48.0000 0000000   0.0000 138.0000 13.81096544    11
CTC1_L_00348005-03
1 41152U 24941EL  26070.40835648  .00000000  00000+0  00000-0 0  9995
2 41152 100.0000  48.0000 0000000   0.0000 228.0000 13.81096544    12
CTC1_L_00348005-04
1 41153U 23121CQ  26070.40835648  .00000000  00000+0  00000-0 0  9995
2 41153 100.0000  48.0000 0000000   0.0000 318.0000 13.81096544    13
CTC1_L_00348006-01
1 41154U 25239BH  26070.40835648  .00000000  00000+0  00000-0 0  9998
2 41154 100.0000  60.0000 0000000   0.0000  60.0000 13.81096544    12
CTC1_L_00348006-02
1 41155U 25531CV  26070.40835648  .00000000  00000+0  00000-0 0  9994
2 41155 100.0000  60.0000 0000000   0.0000 150.0000 13.81096544    13
CTC1_L_00348006-03
1 41156U 22611Z   26070.40835648  .00000000  00000+0  00000-0 0  9991
2 41156 100.0000  60.0000 0000000   0.0000 240.0000 13.81096544    14
CTC1_L_00348006-04
1 41157U 26854ER  26070.40835648  .00000000  00000+0  00000-0 0  9995
2 41157 100.0000  60.0000 0000000   0.0000 330.0000 13.81096544    15
CTC1_L_00348007-01
1 41158U 23662VJ  26070.40835648  .00000000  00000+0  00000-0 0  9990
2 41158 100.0000  72.0000 0000000   0.0000  72.0000 13.81096544    12
CTC1_L_00348007-02
1 41159U 26990G   26070.40835648  .00000000  00000+0  00000-0 0  9998
2 41159 100.0000  72.0000 0000000   0.0000 162.0000 13.81096544    13
CTC1_L_00348007-03
1 41160U 22714AB  26070.40835648  .00000000  00000+0  00000-0 0  9990
2 41160 100.0000  72.0000 0000000   0.0000 252.0000 13.81096544    15
CTC1_L_00348007-04
1 41161U 25623QU  26070.40835648  .00000000  00000+0  00000-0 0  9993
2 41161 100.0000  72.0000 0000000   0.0000 342.0000 13.81096544    16
CTC1_L_00348008-01
1 41162U 23337LA  26070.40835648  .00000000  00000+0  00000-0 0  9994
2 41162 100.0000  84.0000 0000000   0.0000  84.0000 13.81096544    13
CTC1_L_00348008-02
1 41163U 22151B   26070.40835648  .00000000  00000+0  00000-0 0  9998
2 41163 100.0000  84.0000 0000000   0.0000 174.0000 13.81096544    14
CTC1_L_00348008-03
1 41164U 23740ZF  26070.40835648  .00000000  00000+0  00000-0 0  9994
2 41164 100.0000  84.0000 0000000   0.0000 264.0000 13.81096544    15
CTC1_L_00348008-04
1 41165U 24240OX  26070.40835648  .00000000  00000+0  00000-0 0  9991
2 41165 100.0000  84.0000 0000000   0.0000 354.0000 13.81096544    16
CTC1_L_00348009-01
1 41166U 23415DJ  26070.40835648  .00000000  00000+0  00000-0 0  9995
2 41166 100.0000  96.0000 0000000   0.0000  96.0000 13.81096544    13
CTC1_L_00348009-02
1 41167U 24675AF  26070.40835648  .00000000  00000+0  00000-0 0  9995
2 41167 100.0000  96.0000 0000000   0.0000 186.0000 13.81096544    14
CTC1_L_00348009-03
1 41168U 22638BJ  26070.40835648  .00000000  00000+0  00000-0 0  9993
2 41168 100.0000  96.0000 0000000   0.0000 276.0000 13.81096544    15
CTC1_L_00348009-04
1 41169U 26810XM  26070.40835648  .00000000  00000+0  00000-0 0  9990
2 41169 100.0000  96.0000 0000000   0.0000   6.0000 13.81096544    17
CTC1_L_00348010-01
1 41170U 26812EX  26070.40835648  .00000000  00000+0  00000-0 0  9994
2 41170 100.0000 108.0000 0000000   0.0000 108.0000 13.81096544    16
CTC1_L_00348010-02
1 41171U 22569DD  26070.40835648  .00000000  00000+0  00000-0 0  9990
2 41171 100.0000 108.0000 0000000   0.0000 198.0000 13.81096544    16
CTC1_L_00348010-03
1 41172U 24042RF  26070.40835648  .00000000  00000+0  00000-0 0  9999
2 41172 100.0000 108.0000 0000000   0.0000 288.0000 13.81096544    17
CTC1_L_00348010-04
1 41173U 23551UG  26070.40835648  .00000000  00000+0  00000-0 0  9994
2 41173 100.0000 108.0000 0000000   0.0000  18.0000 13.81096544    19
CTC1_L_00348011-01
1 41174U 23186BS  26070.40835648  .00000000  00000+0  00000-0 0  9999
2 41174 100.0000 120.0000 0000000   0.0000 120.0000 13.81096544    18
CTC1_L_00348011-02
1 41175U 25482RK  26070.40835648  .00000000  00000+0  00000-0 0  9991
2 41175 100.0000 120.0000 0000000   0.0000 210.0000 13.81096544    19
CTC1_L_00348011-03
1 41176U 23625KY  26070.40835648  .00000000  00000+0  00000-0 0  9999
2 41176 100.0000 120.0000 0000000   0.0000 300.0000 13.81096544    10
CTC1_L_00348011-04
1 41177U 25867IO  26070.40835648  .00000000  00000+0  00000-0 0  9990
2 41177 100.0000 120.0000 0000000   0.0000  30.0000 13.81096544    11
CTC1_L_00348012-01
1 41178U 25794HQ  26070.40835648  .00000000  00000+0  00000-0 0  9990
2 41178 100.0000 132.0000 0000000   0.0000 132.0000 13.81096544    18
CTC1_L_00348012-02
1 41179U 25812DE  26070.40835648  .00000000  00000+0  00000-0 0  9992
2 41179 100.0000 132.0000 0000000   0.0000 222.0000 13.81096544    19
CTC1_L_00348012-03
1 41180U 24569SB  26070.40835648  .00000000  00000+0  00000-0 0  9992
2 41180 100.0000 132.0000 0000000   0.0000 312.0000 13.81096544    11
CTC1_L_00348012-04
1 41181U 24540QG  26070.40835648  .00000000  00000+0  00000-0 0  9992
2 41181 100.0000 132.0000 0000000   0.0000  42.0000 13.81096544    12
CTC1_L_00348013-01
1 41182U 26638PX  26070.40835648  .00000000  00000+0  00000-0 0  9993
2 41182 100.0000 144.0000 0000000   0.0000 144.0000 13.81096544    19
CTC1_L_00348013-02
1 41183U 23724JA  26070.40835648  .00000000  00000+0  00000-0 0  9997
2 41183 100.0000 144.0000 0000000   0.0000 234.0000 13.81096544    10
CTC1_L_00348013-03
1 41184U 26383OJ  26070.40835648  .00000000  00000+0  00000-0 0  9992
2 41184 100.0000 144.0000 0000000   0.0000 324.0000 13.81096544    11
CTC1_L_00348013-04
1 41185U 23047DM  26070.40835648  .00000000  00000+0  00000-0 0  9997
2 41185 100.0000 144.0000 0000000   0.0000  54.0000 13.81096544    12
CTC1_L_00348014-01
1 41186U 22165TY  26070.40835648  .00000000  00000+0  00000-0 0  9998
2 41186 100.0000 156.0000 0000000   0.0000 156.0000 13.81096544    19
CTC1_L_00348014-02
1 41187U 23446ZG  26070.40835648  .00000000  00000+0  00000-0 0  9992
2 41187 100.0000 156.0000 0000000   0.0000 246.0000 13.81096544    10
CTC1_L_00348014-03
1 41188U 25069KW  26070.40835648  .00000000  00000+0  00000-0 0  9996
2 41188 100.0000 156.0000 0000000   0.0000 336.0000 13.81096544    11
CTC1_L_00348014-04
1 41189U 24156OO  26070.40835648  .00000000  00000+0  00000-0 0  9993
2 41189 100.0000 156.0000 0000000   0.0000  66.0000 13.81096544    12
CTC1_L_00348015-01
1 41190U 25385VS  26070.40835648  .00000000  00000+0  00000-0 0  9990
2 41190 100.0000 168.0000 0000000   0.0000 168.0000 13.81096544    10
CTC1_L_00348015-02
1 41191U 26736ER  26070.40835648  .00000000  00000+0  00000-0 0  9992
2 41191 100.0000 168.0000 0000000   0.0000 258.0000 13.81096544    11
CTC1_L_00348015-03
1 41192U 25955OK  26070.40835648  .00000000  00000+0  00000-0 0  9995
2 41192 100.0000 168.0000 0000000   0.0000 348.0000 13.81096544    12
CTC1_L_00348015-04
1 41193U 23595YS  26070.40835648  .00000000  00000+0  00000-0 0  9994
2 41193 100.0000 168.0000 0000000   0.0000  78.0000 13.81096544    13
CTC1_L_00348016-01
1 41194U 22895SE  26070.40835648  .00000000  00000+0  00000-0 0  9997
2 41194 100.0000 180.0000 0000000   0.0000 180.0000 13.81096544    12
CTC1_L_00348016-02
1 41195U 22907LR  26070.40835648  .00000000  00000+0  00000-0 0  9992
2 41195 100.0000 180.0000 0000000   0.0000 270.0000 13.81096544    13
